[
    {
        "Altitude(m)": 604969.0892169893,
        "Argument of Periapsis(deg)": 0.0,
        "Eccentricity": 0.0,
        "Inclination(deg)": 60.0,
        "Latitude(deg)": -0.09272801637950509,
        "Longitude(deg)": -50.022472283756656,
        "Mean Anomaly(deg)": 0.0,
        "RAAN(deg)": 50.0,
        "Satellite Name": "Test1 220",
        "Satellite Number": 220,
        "Semi-Major Axis(m)": 6980739.136638005,
        "Time(s)": 0
    },
    {
        "Altitude(m)": 604900.0282451248,
        "Argument of Periapsis(deg)": 0.00010418945913296404,
        "Eccentricity": 0.0,
        "Inclination(deg)": 60.0,
        "Latitude(deg)": 0.4476982056553271,
        "Longitude(deg)": -49.754349906020565,
        "Mean Anomaly(deg)": 0.6201061454618275,
        "RAAN(deg)": 49.99957995086026,
        "Satellite Name": "Test1 220",
        "Satellite Number": 220,
        "Semi-Major Axis(m)": 6980739.136638005,
        "Time(s)": 10
    }
]